GLOBALSTAR M024         
1 25883U 99043A   24127.56350398 -.00000105  00000+0 -14387-2 0  9998
2 25883  52.0007 218.0996 0001976 159.1934 213.7358 11.10160175 69706
GLOBALSTAR M027         
1 25884U 99043B   24127.55161145 -.00000122  00000+0 -22056-2 0  9999
2 25884  52.0213 284.5890 0021671  56.6072 303.6791 11.04367811 96311
GLOBALSTAR M054         
1 25885U 99043C   24127.72793913 -.00000050  00000+0  54914-3 0  9991
2 25885  52.0103 119.7019 0004558 202.6329 327.6503 11.39203271 73055
GLOBALSTAR M053         
1 25886U 99043D   24127.49866501 -.00000074  00000+0 -14770-3 0  9993
2 25886  52.0009  44.7836 0003675 103.9469  67.5889 11.27654764 73569
GLOBALSTAR M058         
1 25907U 99049A   24127.26480553 -.00000065  00000+0  26373-3 0  9998
2 25907  51.9912 115.7423 0002269 218.7779 141.2893 11.93176770492965
GLOBALSTAR M050         
1 25908U 99049B   24127.33165718 -.00000141  00000+0 -60242-3 0  9999
2 25908  51.9961 153.6380 0009110 300.3241  72.3066 12.07433356 99047
GLOBALSTAR M033         
1 25909U 99049C   24127.83092186  .00000038  00000+0  12520-2 0  9991
2 25909  51.9928  52.1665 0011741 151.1139 209.0360 12.20273058118854
GLOBALSTAR M055         
1 25910U 99049D   24127.58753445 -.00000080  00000+0  12447-3 0  9994
2 25910  52.0018  83.3850 0007375   9.1028 350.9956 12.29400617118272
